[{"OBJECT_NAME":"STARLINK-5580","OBJECT_ID":"2023-028H","EPOCH":"2026-03-09T22:04:41.401632","MEAN_MOTION":14.98323971,"ECCENTRICITY":0.00032696,"INCLINATION":69.9985,"RA_OF_ASC_NODE":243.9125,"ARG_OF_PERICENTER":267.398,"MEAN_ANOMALY":92.6805,"EPHEMERIS_TYPE":0,"CLASSIFICATION_TYPE":"U","NORAD_CAT_ID":55748,"ELEMENT_SET_NO":999,"REV_AT_EPOCH":16607,"BSTAR":-0.00011136482,"MEAN_MOTION_DOT":-1.421e-5,"MEAN_MOTION_DDOT":0},{"OBJECT_NAME":"PEGASUS DEB","OBJECT_ID":"1994-029AEQ","EPOCH":"2026-03-09T08:40:11.508384","MEAN_MOTION":14.70940867,"ECCENTRICITY":0.01619331,"INCLINATION":81.9633,"RA_OF_ASC_NODE":47.0468,"ARG_OF_PERICENTER":351.1383,"MEAN_ANOMALY":8.6969,"EPHEMERIS_TYPE":0,"CLASSIFICATION_TYPE":"U","NORAD_CAT_ID":29033,"ELEMENT_SET_NO":999,"REV_AT_EPOCH":21443,"BSTAR":0.0030025525,"MEAN_MOTION_DOT":0.00022643,"MEAN_MOTION_DDOT":0}]
